{
  "type": "FeatureCollection",
  "features": [
    {
      "type": "Feature",
      "properties": {
        "norad_id": 66390,
        "name": "STARLINK-35665",
        "group": "last-30-days",
        "lat": 11.96126251061706,
        "lon": 92.57431348062596,
        "alt_km": 417.51935929308456,
        "timestamp": "2025-12-08T23:34:02.738087+00:00",
        "meta_object_name": "STARLINK-35665",
        "meta_object_id": "2025-257L",
        "meta_epoch": "2025-12-08T13:34:12.392544",
        "meta_mean_motion": 15.493394,
        "meta_eccentricity": 0.00014235,
        "meta_inclination": 53.1587,
        "meta_ra_of_asc_node": 283.7062,
        "meta_arg_of_pericenter": 82.9526,
        "meta_mean_anomaly": 277.1645,
        "meta_ephemeris_type": 0,
        "meta_classification_type": "U",
        "meta_norad_cat_id": 66390,
        "meta_element_set_no": 999,
        "meta_rev_at_epoch": 583,
        "meta_bstar": 0.0014764468,
        "meta_mean_motion_dot": 0.00082628,
        "meta_mean_motion_ddot": 0,
        "tle_line1": "1 66390U 25257L   25342.56542121  .00082628  00000+0  14764-2 0  9996",
        "tle_line2": "2 66390  53.1587 283.7062 0001423  82.9526 277.1645 15.49339400  5831"
      },
      "geometry": {
        "type": "Point",
        "coordinates": [
          92.57431348062596,
          11.96126251061706
        ]
      }
    },
    {
      "type": "Feature",
      "properties": {
        "norad_id": 66391,
        "name": "STARLINK-35656",
        "group": "last-30-days",
        "lat": -22.88757115717147,
        "lon": -96.36411972389895,
        "alt_km": 450.6427575707894,
        "timestamp": "2025-12-08T23:34:02.738097+00:00",
        "meta_object_name": "STARLINK-35656",
        "meta_object_id": "2025-257M",
        "meta_epoch": "2025-12-08T06:33:23.584896",
        "meta_mean_motion": 15.39625286,
        "meta_eccentricity": 9.076e-05,
        "meta_inclination": 53.1594,
        "meta_ra_of_asc_node": 285.4288,
        "meta_arg_of_pericenter": 100.2152,
        "meta_mean_anomaly": 259.8955,
        "meta_ephemeris_type": 0,
        "meta_classification_type": "U",
        "meta_norad_cat_id": 66391,
        "meta_element_set_no": 999,
        "meta_rev_at_epoch": 578,
        "meta_bstar": 0.0018211814,
        "meta_mean_motion_dot": 0.00073161,
        "meta_mean_motion_ddot": 0,
        "tle_line1": "1 66391U 25257M   25342.27318964  .00073161  00000+0  18212-2 0  9995",
        "tle_line2": "2 66391  53.1594 285.4288 0000907 100.2152 259.8955 15.39625286  5788"
      },
      "geometry": {
        "type": "Point",
        "coordinates": [
          -96.36411972389895,
          -22.88757115717147
        ]
      }
    },
    {
      "type": "Feature",
      "properties": {
        "norad_id": 66392,
        "name": "STARLINK-35671",
        "group": "last-30-days",
        "lat": -39.735979655905545,
        "lon": -116.40209705509612,
        "alt_km": 452.01048157099194,
        "timestamp": "2025-12-08T23:34:02.738107+00:00",
        "meta_object_name": "STARLINK-35671",
        "meta_object_id": "2025-257N",
        "meta_epoch": "2025-12-08T03:32:39.581376",
        "meta_mean_motion": 15.39593668,
        "meta_eccentricity": 0.00014385,
        "meta_inclination": 53.1602,
        "meta_ra_of_asc_node": 286.0819,
        "meta_arg_of_pericenter": 83.5677,
        "meta_mean_anomaly": 276.5491,
        "meta_ephemeris_type": 0,
        "meta_classification_type": "U",
        "meta_norad_cat_id": 66392,
        "meta_element_set_no": 999,
        "meta_rev_at_epoch": 566,
        "meta_bstar": 0.0020374587,
        "meta_mean_motion_dot": 0.00081906,
        "meta_mean_motion_ddot": 0,
        "tle_line1": "1 66392U 25257N   25342.14768034  .00081906  00000+0  20375-2 0  9998",
        "tle_line2": "2 66392  53.1602 286.0819 0001438  83.5677 276.5491 15.39593668  5667"
      },
      "geometry": {
        "type": "Point",
        "coordinates": [
          -116.40209705509612,
          -39.735979655905545
        ]
      }
    },
    {
      "type": "Feature",
      "properties": {
        "norad_id": 66393,
        "name": "STARLINK-35652",
        "group": "last-30-days",
        "lat": -2.8167548467017065,
        "lon": -80.06297471473543,
        "alt_km": 448.51474994308137,
        "timestamp": "2025-12-08T23:34:02.738118+00:00",
        "meta_object_name": "STARLINK-35652",
        "meta_object_id": "2025-257P",
        "meta_epoch": "2025-12-08T14:00:01.999872",
        "meta_mean_motion": 15.39596561,
        "meta_eccentricity": 0.00012404,
        "meta_inclination": 53.1588,
        "meta_ra_of_asc_node": 283.9299,
        "meta_arg_of_pericenter": 86.9225,
        "meta_mean_anomaly": 219.0384,
        "meta_ephemeris_type": 0,
        "meta_classification_type": "U",
        "meta_norad_cat_id": 66393,
        "meta_element_set_no": 999,
        "meta_rev_at_epoch": 582,
        "meta_bstar": 0.00078667088,
        "meta_mean_motion_dot": 0.00031171,
        "meta_mean_motion_ddot": 0,
        "tle_line1": "1 66393U 25257P   25342.58335648  .00031171  00000+0  78667-3 0  9995",
        "tle_line2": "2 66393  53.1588 283.9299 0001240  86.9225 219.0384 15.39596561  5822"
      },
      "geometry": {
        "type": "Point",
        "coordinates": [
          -80.06297471473543,
          -2.8167548467017065
        ]
      }
    },
    {
      "type": "Feature",
      "properties": {
        "norad_id": 66394,
        "name": "STARLINK-35672",
        "group": "last-30-days",
        "lat": -1.3456843048418692,
        "lon": -78.96299100414312,
        "alt_km": 448.3322701663865,
        "timestamp": "2025-12-08T23:34:02.738129+00:00",
        "meta_object_name": "STARLINK-35672",
        "meta_object_id": "2025-257Q",
        "meta_epoch": "2025-12-08T14:00:01.999872",
        "meta_mean_motion": 15.39597855,
        "meta_eccentricity": 0.0001254,
        "meta_inclination": 53.1589,
        "meta_ra_of_asc_node": 283.925,
        "meta_arg_of_pericenter": 89.1434,
        "meta_mean_anomaly": 218.6553,
        "meta_ephemeris_type": 0,
        "meta_classification_type": "U",
        "meta_norad_cat_id": 66394,
        "meta_element_set_no": 999,
        "meta_rev_at_epoch": 582,
        "meta_bstar": 0.00077390185,
        "meta_mean_motion_dot": 0.00030658,
        "meta_mean_motion_ddot": 0,
        "tle_line1": "1 66394U 25257Q   25342.58335648  .00030658  00000+0  77390-3 0  9997",
        "tle_line2": "2 66394  53.1589 283.9250 0001254  89.1434 218.6553 15.39597855  5823"
      },
      "geometry": {
        "type": "Point",
        "coordinates": [
          -78.96299100414312,
          -1.3456843048418692
        ]
      }
    },
    {
      "type": "Feature",
      "properties": {
        "norad_id": 66395,
        "name": "STARLINK-35681",
        "group": "last-30-days",
        "lat": 17.637058023244933,
        "lon": -64.21040011895698,
        "alt_km": 445.5625236545975,
        "timestamp": "2025-12-08T23:34:02.738140+00:00",
        "meta_object_name": "STARLINK-35681",
        "meta_object_id": "2025-257R",
        "meta_epoch": "2025-12-08T14:00:01.999872",
        "meta_mean_motion": 15.39593388,
        "meta_eccentricity": 0.00010558,
        "meta_inclination": 53.1595,
        "meta_ra_of_asc_node": 283.8785,
        "meta_arg_of_pericenter": 110.0408,
        "meta_mean_anomaly": 221.6841,
        "meta_ephemeris_type": 0,
        "meta_classification_type": "U",
        "meta_norad_cat_id": 66395,
        "meta_element_set_no": 999,
        "meta_rev_at_epoch": 566,
        "meta_bstar": 0.0008366855,
        "meta_mean_motion_dot": 0.00033183,
        "meta_mean_motion_ddot": 0,
        "tle_line1": "1 66395U 25257R   25342.58335648  .00033183  00000+0  83669-3 0  9990",
        "tle_line2": "2 66395  53.1595 283.8785 0001055 110.0408 221.6841 15.39593388  5660"
      },
      "geometry": {
        "type": "Point",
        "coordinates": [
          -64.21040011895698,
          17.637058023244933
        ]
      }
    },
    {
      "type": "Feature",
      "properties": {
        "norad_id": 66396,
        "name": "STARLINK-35669",
        "group": "last-30-days",
        "lat": 19.05994113738849,
        "lon": -62.9924098780512,
        "alt_km": 445.2814178655408,
        "timestamp": "2025-12-08T23:34:02.738153+00:00",
        "meta_object_name": "STARLINK-35669",
        "meta_object_id": "2025-257S",
        "meta_epoch": "2025-12-08T14:00:01.999872",
        "meta_mean_motion": 15.39595189,
        "meta_eccentricity": 9.997e-05,
        "meta_inclination": 53.1594,
        "meta_ra_of_asc_node": 283.8738,
        "meta_arg_of_pericenter": 107.257,
        "meta_mean_anomaly": 226.3004,
        "meta_ephemeris_type": 0,
        "meta_classification_type": "U",
        "meta_norad_cat_id": 66396,
        "meta_element_set_no": 999,
        "meta_rev_at_epoch": 582,
        "meta_bstar": 0.00078694354,
        "meta_mean_motion_dot": 0.0003118,
        "meta_mean_motion_ddot": 0,
        "tle_line1": "1 66396U 25257S   25342.58335648  .00031180  00000+0  78694-3 0  9998",
        "tle_line2": "2 66396  53.1594 283.8738 0000999 107.2570 226.3004 15.39595189  5824"
      },
      "geometry": {
        "type": "Point",
        "coordinates": [
          -62.9924098780512,
          19.05994113738849
        ]
      }
    }
  ]
}